<?xml version="1.0" encoding="UTF-8"?><osm version="0.6" generator="https://github.com/Rub21/geojson2osm"><node lat="45.399825" lon="-75.683629"  id="-1"  changeset="false" ><tag k="name" v="Cineplex Cinemas Lansdowne and VIP"/><tag k="amenity" v="cinema"/><tag k="operator" v="Cineplex"/><tag k="addr:housenumber" v="325"/><tag k="addr:street" v="Marche Way"/><tag k="addr:postal_code" v="K1S 5J3"/><tag k="addr:unit" v="107"/><tag k="addr:city" v="Ottawa"/><tag k="phone" v="613-232-2770"/><tag k="website" v="http://www.cineplex.com/Theatre/cineplex-cinemas-lansdowne-and-vip"/></node><node lat="45.435911" lon="-75.77602"  id="-2"  changeset="false" ><tag k="name" v="Cinéma Starcité Gatineau"/><tag k="amenity" v="cinema"/><tag k="operator" v="Cineplex"/><tag k="addr:housenumber" v="115"/><tag k="addr:street" v="boulevard Du Plateau"/><tag k="addr:postal_code" v="J9A 3G1"/><tag k="addr:city" v="Hull"/><tag k="phone" v="819-770-1090"/><tag k="website" v="http://www.cineplex.com/Theatre/cinema-starcite-gatineau"/></node><node lat="45.432609" lon="-75.612752"  id="-3"  changeset="false" ><tag k="name" v="Scotiabank Theatre Ottawa (formerly SilverCity Gloucester)"/><tag k="amenity" v="cinema"/><tag k="operator" v="Cineplex"/><tag k="addr:housenumber" v="2385"/><tag k="addr:street" v="City Park Drive"/><tag k="addr:postal_code" v="K1J 1G1"/><tag k="addr:city" v="Gloucester"/><tag k="phone" v="613-749-5112"/><tag k="website" v="http://www.cineplex.com/Theatre/scotiabank-theatre-ottawa-formerly-silvercity-gloucester"/></node><node lat="45.357422" lon="-75.654245"  id="-4"  changeset="false" ><tag k="name" v="Cineplex Odeon South Keys Cinemas "/><tag k="amenity" v="cinema"/><tag k="operator" v="Cineplex"/><tag k="addr:housenumber" v="2214"/><tag k="addr:street" v="Bank Street"/><tag k="addr:postal_code" v="K1V 1J6"/><tag k="addr:city" v="Ottawa"/><tag k="phone" v="613-736-1115"/><tag k="website" v="http://www.cineplex.com/Theatre/cineplex-odeon-south-keys-cinemas"/></node><node lat="45.354452" lon="-75.80605"  id="-5"  changeset="false" ><tag k="name" v="Cineplex Cinemas Ottawa"/><tag k="amenity" v="cinema"/><tag k="operator" v="Cineplex"/><tag k="addr:housenumber" v="3090"/><tag k="addr:street" v="Carling Avenue"/><tag k="addr:postal_code" v="K2B 7K2"/><tag k="addr:city" v="Ottawa"/><tag k="phone" v="613-596-9475"/><tag k="website" v="http://www.cineplex.com/Theatre/cineplex-cinemas-ottawa"/></node><node lat="45.269531" lon="-75.741067"  id="-6"  changeset="false" ><tag k="name" v="Cineplex Odeon Barrhaven Cinemas "/><tag k="amenity" v="cinema"/><tag k="operator" v="Cineplex"/><tag k="addr:housenumber" v="131"/><tag k="addr:street" v="Riocan Avenue"/><tag k="addr:postal_code" v="K2J 5G5"/><tag k="addr:city" v="Barrhaven"/><tag k="phone" v="613-825-2463"/><tag k="website" v="http://www.cineplex.com/Theatre/cineplex-odeon-barrhaven-cinemas"/></node><node lat="45.026114" lon="-74.704688"  id="-7"  changeset="false" ><tag k="name" v="Galaxy Cinemas Cornwall"/><tag k="amenity" v="cinema"/><tag k="operator" v="Cineplex"/><tag k="addr:housenumber" v="1325"/><tag k="addr:street" v="Second Street East"/><tag k="addr:postal_code" v="K6H 2B6"/><tag k="addr:city" v="Cornwall"/><tag k="phone" v="613-932-4500"/><tag k="website" v="http://www.cineplex.com/Theatre/galaxy-cinemas-cornwall"/></node><node lat="44.603859" lon="-75.700811"  id="-8"  changeset="false" ><tag k="name" v="Galaxy Cinemas Brockville"/><tag k="amenity" v="cinema"/><tag k="operator" v="Cineplex"/><tag k="addr:housenumber" v="1000"/><tag k="addr:street" v="Island Mall, 2399 Parkedale Avenue"/><tag k="addr:postal_code" v="K6V 2G9"/><tag k="addr:city" v="Brockville"/><tag k="phone" v="613-498-2217"/><tag k="website" v="http://www.cineplex.com/Theatre/galaxy-cinemas-brockville"/></node><node lat="45.381437" lon="-74.018583"  id="-9"  changeset="false" ><tag k="name" v="Cinéma Cineplex Odeon Carrefour Dorion"/><tag k="amenity" v="cinema"/><tag k="operator" v="Cineplex"/><tag k="addr:housenumber" v="391"/><tag k="addr:street" v="boulevard Harwood"/><tag k="addr:postal_code" v="J7V 7W1"/><tag k="addr:city" v="Dorion"/><tag k="phone" v="450-455-9853"/><tag k="website" v="http://www.cineplex.com/Theatre/cinema-cineplex-odeon-carrefour-dorion"/></node><node lat="45.440559" lon="-73.886466"  id="-10"  changeset="false" ><tag k="name" v="Cinéma Cineplex Kirkland"/><tag k="amenity" v="cinema"/><tag k="operator" v="Cineplex"/><tag k="addr:housenumber" v="3200"/><tag k="addr:street" v="rue Jean Yves"/><tag k="addr:postal_code" v="H9J 2R6"/><tag k="addr:city" v="Kirkland"/><tag k="phone" v="514-694-8922"/><tag k="website" v="http://www.cineplex.com/Theatre/cinema-cineplex-kirkland"/></node><node lat="44.244361" lon="-76.562101"  id="-11"  changeset="false" ><tag k="name" v="Cineplex Odeon Gardiners Road Cinemas "/><tag k="amenity" v="cinema"/><tag k="operator" v="Cineplex"/><tag k="addr:housenumber" v="626"/><tag k="addr:street" v="Gardiners Road"/><tag k="addr:postal_code" v="K7M 3X9"/><tag k="addr:city" v="Kingston"/><tag k="phone" v="613-634-0152"/><tag k="website" v="http://www.cineplex.com/Theatre/cineplex-odeon-gardiners-road-cinemas"/></node><node lat="45.564966" lon="-73.745071"  id="-12"  changeset="false" ><tag k="name" v="Cinéma Cineplex Laval "/><tag k="amenity" v="cinema"/><tag k="operator" v="Cineplex"/><tag k="addr:housenumber" v="2800"/><tag k="addr:street" v="avenue Du Cosmod,me"/><tag k="addr:postal_code" v="H7T 2X1"/><tag k="addr:city" v="Laval"/><tag k="phone" v="450-978-0212"/><tag k="website" v="http://www.cineplex.com/Theatre/cinema-cineplex-laval"/></node><node lat="45.476338" lon="-73.661506"  id="-13"  changeset="false" ><tag k="name" v="Cinéma Cineplex Odeon Cavendish Mall"/><tag k="amenity" v="cinema"/><tag k="operator" v="Cineplex"/><tag k="addr:housenumber" v="5800"/><tag k="addr:street" v="boulevard Cavendish"/><tag k="addr:postal_code" v="H4W 2T5"/><tag k="addr:city" v="Cote Saint-Luc"/><tag k="website" v="http://www.cineplex.com/Theatre/cinema-cineplex-odeon-cavendish-mall"/></node><node lat="45.44769" lon="-73.611317"  id="-14"  changeset="false" ><tag k="name" v="Cinéma Famous Players Carrefour Angrignon"/><tag k="amenity" v="cinema"/><tag k="operator" v="Cineplex"/><tag k="addr:housenumber" v="7077"/><tag k="addr:street" v="boulevard Newman"/><tag k="addr:postal_code" v="H8N 1X1"/><tag k="addr:city" v="LaSalle"/><tag k="phone" v="514-366-2444"/><tag k="website" v="http://www.cineplex.com/Theatre/cinema-famous-players-carrefour-angrignon"/></node><node lat="45.428419" lon="-73.609546"  id="-15"  changeset="false" ><tag k="name" v="Cinéma Cineplex Odeon Place La Salle"/><tag k="amenity" v="cinema"/><tag k="operator" v="Cineplex"/><tag k="addr:housenumber" v="7816"/><tag k="addr:street" v="Boulevard Champlain, Local 62"/><tag k="addr:postal_code" v="H8P 1B3"/><tag k="addr:city" v="LaSalle"/><tag k="phone" v="514-365-5659"/><tag k="website" v="http://www.cineplex.com/Theatre/cinema-cineplex-odeon-place-la-salle"/></node><node lat="45.490122" lon="-73.584057"  id="-16"  changeset="false" ><tag k="name" v="Cinéma Cineplex Forum"/><tag k="amenity" v="cinema"/><tag k="operator" v="Cineplex"/><tag k="addr:housenumber" v="2313"/><tag k="addr:street" v="St. Catherine St. West Suite 101"/><tag k="addr:postal_code" v="H3H 1N2"/><tag k="addr:city" v="Montréal"/><tag k="phone" v="514-904-1274"/><tag k="website" v="http://www.cineplex.com/Theatre/cinema-cineplex-forum"/></node><node lat="45.501098" lon="-73.572074"  id="-17"  changeset="false" ><tag k="name" v="Cinéma Banque Scotia Montréal"/><tag k="amenity" v="cinema"/><tag k="operator" v="Cineplex"/><tag k="addr:housenumber" v="977"/><tag k="addr:street" v="rue Sainte-Catherine Ouest"/><tag k="addr:postal_code" v="H3B 4W3"/><tag k="addr:city" v="Montréal"/><tag k="phone" v="514-842-0549"/><tag k="website" v="http://www.cineplex.com/Theatre/cinema-banque-scotia-montreal"/></node><node lat="45.514479" lon="-73.563536"  id="-18"  changeset="false" ><tag k="name" v="Cinéma Cineplex Odeon Quartier Latin"/><tag k="amenity" v="cinema"/><tag k="operator" v="Cineplex"/><tag k="addr:housenumber" v="350"/><tag k="addr:street" v="rue Emery"/><tag k="addr:postal_code" v="H2X 1J1"/><tag k="addr:city" v="Montréal"/><tag k="phone" v="514-849-2244"/><tag k="website" v="http://www.cineplex.com/Theatre/cinema-cineplex-odeon-quartier-latin"/></node><node lat="45.560488" lon="-73.547508"  id="-19"  changeset="false" ><tag k="name" v="Cinéma Starcité Montréal"/><tag k="amenity" v="cinema"/><tag k="operator" v="Cineplex"/><tag k="addr:housenumber" v="4825"/><tag k="addr:street" v="avenue Pierre De Coubertin"/><tag k="addr:postal_code" v="H1V 3V4"/><tag k="addr:city" v="Montréal"/><tag k="phone" v="514-899-8979"/><tag k="website" v="http://www.cineplex.com/Theatre/cinema-starcite-montreal"/></node><node lat="45.56833" lon="-73.446334"  id="-20"  changeset="false" ><tag k="name" v="Cinéma Cineplex Odeon Boucherville"/><tag k="amenity" v="cinema"/><tag k="operator" v="Cineplex"/><tag k="addr:housenumber" v="20"/><tag k="addr:street" v="boulevard de Mortagne"/><tag k="addr:postal_code" v="J4B 5K6"/><tag k="addr:city" v="Boucherville"/><tag k="phone" v="450-449-6404"/><tag k="website" v="http://www.cineplex.com/Theatre/cinema-cineplex-odeon-boucherville"/></node><node lat="45.444414" lon="-73.435757"  id="-21"  changeset="false" ><tag k="name" v="Cinéma Cineplex Odeon Brossard et VIP"/><tag k="amenity" v="cinema"/><tag k="operator" v="Cineplex"/><tag k="addr:housenumber" v="9350"/><tag k="addr:street" v="boulevard Leduc"/><tag k="addr:postal_code" v="J4Y 0B3"/><tag k="addr:city" v="Brossard"/><tag k="phone" v="450-678-5542"/><tag k="website" v="http://www.cineplex.com/Theatre/cinema-cineplex-odeon-brossard-et-vip"/></node><node lat="45.507437" lon="-73.38172"  id="-22"  changeset="false" ><tag k="name" v="Cinéma Cineplex Odeon St-Bruno"/><tag k="amenity" v="cinema"/><tag k="operator" v="Cineplex"/><tag k="addr:housenumber" v="1495"/><tag k="addr:street" v="boulevard St-Bruno"/><tag k="addr:postal_code" v="J3V 6J1"/><tag k="addr:city" v="St-Bruno"/><tag k="phone" v="450-653-7756"/><tag k="website" v="http://www.cineplex.com/Theatre/cinema-cineplex-odeon-stbruno"/></node><node lat="45.308302" lon="-73.251068"  id="-23"  changeset="false" ><tag k="name" v="Cinéma Capitol St-Jean"/><tag k="amenity" v="cinema"/><tag k="operator" v="Cineplex"/><tag k="addr:housenumber" v="286"/><tag k="addr:street" v="rue Richelieu"/><tag k="addr:postal_code" v="J3B 6Y4"/><tag k="addr:city" v="St. Jean"/><tag k="phone" v="450-358-3030"/><tag k="website" v="http://www.cineplex.com/Theatre/cinema-capitol-stjean"/></node><node lat="44.188759" lon="-77.403746"  id="-24"  changeset="false" ><tag k="name" v="Galaxy Cinemas Belleville"/><tag k="amenity" v="cinema"/><tag k="operator" v="Cineplex"/><tag k="addr:housenumber" v="160"/><tag k="addr:street" v="Bell Boulevard"/><tag k="addr:postal_code" v="K8P 5L2"/><tag k="addr:city" v="Belleville"/><tag k="phone" v="613-969-8469"/><tag k="website" v="http://www.cineplex.com/Theatre/galaxy-cinemas-belleville"/></node><node lat="44.303657" lon="-78.318584"  id="-25"  changeset="false" ><tag k="name" v="Galaxy Cinemas Peterborough"/><tag k="amenity" v="cinema"/><tag k="operator" v="Cineplex"/><tag k="addr:housenumber" v="320"/><tag k="addr:street" v="Water Street"/><tag k="addr:postal_code" v="K9H 7N9"/><tag k="addr:city" v="Peterborough"/><tag k="phone" v="705-749-2000"/><tag k="website" v="http://www.cineplex.com/Theatre/galaxy-cinemas-peterborough"/></node><node lat="43.910707" lon="-78.707954"  id="-26"  changeset="false" ><tag k="name" v="Cineplex Odeon Clarington Place Cinemas "/><tag k="amenity" v="cinema"/><tag k="operator" v="Cineplex"/><tag k="addr:housenumber" v="111"/><tag k="addr:street" v="Clarington Boulevard"/><tag k="addr:postal_code" v="L1C 4Z3"/><tag k="addr:city" v="Clarington"/><tag k="phone" v="905-697-0308"/><tag k="website" v="http://www.cineplex.com/Theatre/cineplex-odeon-clarington-place-cinemas"/></node><node lat="45.383456" lon="-71.962917"  id="-27"  changeset="false" ><tag k="name" v="Cinéma Galaxy Sherbrooke"/><tag k="amenity" v="cinema"/><tag k="operator" v="Cineplex"/><tag k="addr:housenumber" v="4204"/><tag k="addr:street" v="Bertrand-Fabi"/><tag k="addr:postal_code" v="J1N 3Y2"/><tag k="addr:city" v="Rock Forest"/><tag k="phone" v="819-821-4481"/><tag k="website" v="http://www.cineplex.com/Theatre/cinema-galaxy-sherbrooke"/></node><node lat="43.941749" lon="-78.836914"  id="-28"  changeset="false" ><tag k="name" v="Cineplex Odeon Oshawa Cinemas"/><tag k="amenity" v="cinema"/><tag k="operator" v="Cineplex"/><tag k="addr:housenumber" v="1351"/><tag k="addr:street" v="Grandview Street North"/><tag k="addr:postal_code" v="L1K 0G1"/><tag k="addr:city" v="Oshawa"/><tag k="phone" v="905-432-3486"/><tag k="website" v="http://www.cineplex.com/Theatre/cineplex-odeon-oshawa-cinemas"/></node><node lat="46.062622" lon="-71.92874"  id="-29"  changeset="false" ><tag k="name" v="Cinéma Galaxy Victoriaville"/><tag k="amenity" v="cinema"/><tag k="operator" v="Cineplex"/><tag k="addr:housenumber" v="1121"/><tag k="addr:street" v="boulevard Jutras Est"/><tag k="addr:postal_code" v="G6S 1J1"/><tag k="addr:city" v="Victoriaville"/><tag k="phone" v="819-357-7000"/><tag k="website" v="http://www.cineplex.com/Theatre/cinema-galaxy-victoriaville"/></node><node lat="46.282852" lon="-79.448782"  id="-30"  changeset="false" ><tag k="name" v="Galaxy Cinemas North Bay"/><tag k="amenity" v="cinema"/><tag k="operator" v="Cineplex"/><tag k="addr:housenumber" v="300"/><tag k="addr:street" v="Lakeshore Drive"/><tag k="addr:postal_code" v="P1A 3V2"/><tag k="addr:city" v="North Bay"/><tag k="phone" v="705-476-6410"/><tag k="website" v="http://www.cineplex.com/Theatre/galaxy-cinemas-north-bay"/></node><node lat="44.606563" lon="-79.453211"  id="-31"  changeset="false" ><tag k="name" v="Galaxy Cinemas Orillia"/><tag k="amenity" v="cinema"/><tag k="operator" v="Cineplex"/><tag k="addr:housenumber" v="865"/><tag k="addr:street" v="West Ridge Boulevard"/><tag k="addr:postal_code" v="L3V 8B3"/><tag k="addr:city" v="Orillia"/><tag k="phone" v="705-326-8908"/><tag k="website" v="http://www.cineplex.com/Theatre/galaxy-cinemas-orillia"/></node><node lat="43.866253" lon="-79.016402"  id="-32"  changeset="false" ><tag k="name" v="Cineplex Odeon Ajax Cinemas "/><tag k="amenity" v="cinema"/><tag k="operator" v="Cineplex"/><tag k="addr:housenumber" v="248"/><tag k="addr:street" v="Kingston Road East, Highway 2"/><tag k="addr:postal_code" v="L1S 1G1"/><tag k="addr:city" v="Ajax"/><tag k="phone" v="905-426-7772"/><tag k="website" v="http://www.cineplex.com/Theatre/cineplex-odeon-ajax-cinemas"/></node><node lat="43.837282" lon="-79.088559"  id="-33"  changeset="false" ><tag k="name" v="Famous Players Pickering 8 Cinemas"/><tag k="amenity" v="cinema"/><tag k="operator" v="Cineplex"/><tag k="addr:housenumber" v="1355"/><tag k="addr:street" v="Kingston Road"/><tag k="addr:postal_code" v="L1V 1B8"/><tag k="addr:city" v="Pickering"/><tag k="website" v="http://www.cineplex.com/Theatre/famous-players-pickering-8-cinemas"/></node><node lat="43.797755" lon="-79.204"  id="-34"  changeset="false" ><tag k="name" v="Cineplex Odeon Morningside Cinemas"/><tag k="amenity" v="cinema"/><tag k="operator" v="Cineplex"/><tag k="addr:housenumber" v="785"/><tag k="addr:street" v="Milner Avenue"/><tag k="addr:postal_code" v="M1B 3C3"/><tag k="addr:city" v="Scarborough"/><tag k="phone" v="416-281-1444"/><tag k="website" v="http://www.cineplex.com/Theatre/cineplex-odeon-morningside-cinemas"/></node><node lat="44.415242" lon="-79.675016"  id="-35"  changeset="false" ><tag k="name" v="Cineplex Cinemas North Barrie"/><tag k="amenity" v="cinema"/><tag k="operator" v="Cineplex"/><tag k="addr:housenumber" v="507"/><tag k="addr:street" v="Cundles Road East"/><tag k="addr:postal_code" v="L4M 0G9"/><tag k="addr:city" v="Barrie"/><tag k="phone" v="705-302-0159"/><tag k="website" v="http://www.cineplex.com/Theatre/cineplex-cinemas-north-barrie"/></node><node lat="44.070601" lon="-79.484036"  id="-36"  changeset="false" ><tag k="name" v="SilverCity Newmarket Cinemas"/><tag k="amenity" v="cinema"/><tag k="operator" v="Cineplex"/><tag k="addr:housenumber" v="18195"/><tag k="addr:street" v="Yonge Street"/><tag k="addr:postal_code" v="L9N 0H9"/><tag k="addr:city" v="East Gwillimbury"/><tag k="phone" v="905-953-2792"/><tag k="website" v="http://www.cineplex.com/Theatre/silvercity-newmarket-cinemas"/></node><node lat="44.010187" lon="-79.444875"  id="-37"  changeset="false" ><tag k="name" v="Cineplex Odeon Aurora Cinemas"/><tag k="amenity" v="cinema"/><tag k="operator" v="Cineplex"/><tag k="addr:housenumber" v="15460"/><tag k="addr:street" v="Bayview Avenue"/><tag k="addr:postal_code" v="L4G 7J1"/><tag k="addr:city" v="Aurora"/><tag k="phone" v="905-841-1789"/><tag k="website" v="http://www.cineplex.com/Theatre/cineplex-odeon-aurora-cinemas"/></node><node lat="44.40161" lon="-79.703321"  id="-38"  changeset="false" ><tag k="name" v="Bayfield Cinemas"/><tag k="amenity" v="cinema"/><tag k="operator" v="Cineplex"/><tag k="addr:housenumber" v="320"/><tag k="addr:street" v="Bayfield St"/><tag k="addr:postal_code" v="L4M 3C1"/><tag k="addr:city" v="Barrie"/><tag k="phone" v="705-726-3456"/><tag k="website" v="http://www.cineplex.com/Theatre/bayfield-cinemas"/></node><node lat="43.776401" lon="-79.255285"  id="-39"  changeset="false" ><tag k="name" v="Cineplex Cinemas Scarborough"/><tag k="amenity" v="cinema"/><tag k="operator" v="Cineplex"/><tag k="addr:housenumber" v="300"/><tag k="addr:street" v="Borough Drive"/><tag k="addr:postal_code" v="M1P 4P5"/><tag k="addr:city" v="Scarborough"/><tag k="website" v="http://www.cineplex.com/Theatre/cineplex-cinemas-scarborough"/></node><node lat="43.849312" lon="-79.323928"  id="-40"  changeset="false" ><tag k="name" v="Cineplex Cinemas Markham and VIP"/><tag k="amenity" v="cinema"/><tag k="operator" v="Cineplex"/><tag k="addr:housenumber" v="179"/><tag k="addr:street" v="Enterprise Blvd., Suite 169"/><tag k="addr:postal_code" v="L6G 0E7"/><tag k="addr:city" v="Markham"/><tag k="phone" v="905-479-1778"/><tag k="website" v="http://www.cineplex.com/Theatre/cineplex-cinemas-markham-and-vip"/></node><node lat="44.325548" lon="-79.685753"  id="-41"  changeset="false" ><tag k="name" v="Galaxy Cinemas Barrie"/><tag k="amenity" v="cinema"/><tag k="operator" v="Cineplex"/><tag k="addr:housenumber" v="72"/><tag k="addr:street" v="Commerce Park Drive"/><tag k="addr:postal_code" v="L4N 8W8"/><tag k="addr:city" v="Barrie"/><tag k="phone" v="705-728-1171"/><tag k="website" v="http://www.cineplex.com/Theatre/galaxy-cinemas-barrie"/></node><node lat="44.736926" lon="-79.911616"  id="-42"  changeset="false" ><tag k="name" v="Galaxy Cinemas Midland"/><tag k="amenity" v="cinema"/><tag k="operator" v="Cineplex"/><tag k="addr:housenumber" v="9226"/><tag k="addr:street" v="Highway 93"/><tag k="addr:postal_code" v="L4R 4K4"/><tag k="addr:city" v="Midland"/><tag k="website" v="http://www.cineplex.com/Theatre/galaxy-cinemas-midland"/></node><node lat="43.725244" lon="-79.290907"  id="-43"  changeset="false" ><tag k="name" v="Cineplex Odeon Eglinton Town Centre Cinemas"/><tag k="amenity" v="cinema"/><tag k="operator" v="Cineplex"/><tag k="addr:housenumber" v="22"/><tag k="addr:street" v="Lebovic Avenue"/><tag k="addr:postal_code" v="M1L 4V9"/><tag k="addr:city" v="Toronto"/><tag k="phone" v="416-752-4494"/><tag k="website" v="http://www.cineplex.com/Theatre/cineplex-odeon-eglinton-town-centre-cinemas"/></node><node lat="43.77563" lon="-79.345296"  id="-44"  changeset="false" ><tag k="name" v="Cineplex Cinemas Fairview Mall"/><tag k="amenity" v="cinema"/><tag k="operator" v="Cineplex"/><tag k="addr:housenumber" v="1800"/><tag k="addr:street" v="Sheppard Avenue East"/><tag k="addr:postal_code" v="M2J 5A7"/><tag k="addr:unit" v="Y007"/><tag k="addr:city" v="Toronto"/><tag k="phone" v="416-644-7746"/><tag k="website" v="http://www.cineplex.com/Theatre/cineplex-cinemas-fairview-mall"/></node><node lat="43.839611" lon="-79.427333"  id="-45"  changeset="false" ><tag k="name" v="SilverCity Richmond Hill Cinemas"/><tag k="amenity" v="cinema"/><tag k="operator" v="Cineplex"/><tag k="addr:housenumber" v="8725"/><tag k="addr:street" v="Yonge Street"/><tag k="addr:postal_code" v="L4C 6Z1"/><tag k="addr:city" v="Richmond Hill"/><tag k="phone" v="905-709-8755"/><tag k="website" v="http://www.cineplex.com/Theatre/silvercity-richmond-hill-cinemas"/></node><node lat="43.734328" lon="-79.346049"  id="-46"  changeset="false" ><tag k="name" v="Cineplex VIP Cinemas Don Mills"/><tag k="amenity" v="cinema"/><tag k="operator" v="Cineplex"/><tag k="addr:housenumber" v="12"/><tag k="addr:street" v="Marie Labatte Road"/><tag k="addr:postal_code" v="M3C 0H9"/><tag k="addr:unit" v="B7"/><tag k="addr:city" v="Toronto"/><tag k="website" v="http://www.cineplex.com/Theatre/cineplex-vip-cinemas-don-mills"/></node><node lat="43.66694" lon="-79.31424"  id="-47"  changeset="false" ><tag k="name" v="The Beach Cinemas - Alliance Cinemas"/><tag k="amenity" v="cinema"/><tag k="operator" v="Cineplex"/><tag k="addr:housenumber" v="1651"/><tag k="addr:street" v="Queen Street East"/><tag k="addr:postal_code" v="M4L 1G5"/><tag k="addr:city" v="Toronto"/><tag k="phone" v="416-699-1327"/><tag k="website" v="http://www.cineplex.com/Theatre/the-beach-cinemas-alliance-cinemas"/></node><node lat="43.768266" lon="-79.412527"  id="-48"  changeset="false" ><tag k="name" v="Cineplex Cinemas Empress Walk"/><tag k="amenity" v="cinema"/><tag k="operator" v="Cineplex"/><tag k="addr:housenumber" v="5095"/><tag k="addr:street" v="Yonge St., 3rd Floor"/><tag k="addr:postal_code" v="M2N 6Z4"/><tag k="addr:city" v="Toronto"/><tag k="phone" v="416-847-0218"/><tag k="website" v="http://www.cineplex.com/Theatre/cineplex-cinemas-empress-walk"/></node><node lat="43.707236" lon="-79.398663"  id="-49"  changeset="false" ><tag k="name" v="Cineplex Cinemas Yonge-Eglinton and VIP (formerly SilverCity)"/><tag k="amenity" v="cinema"/><tag k="operator" v="Cineplex"/><tag k="addr:housenumber" v="2300"/><tag k="addr:street" v="Yonge Street"/><tag k="addr:postal_code" v="M4P 1E4"/><tag k="addr:city" v="Toronto"/><tag k="phone" v="416-544-1236"/><tag k="website" v="http://www.cineplex.com/Theatre/cineplex-cinemas-yongeeglinton-and-vip-formerly-silvercity"/></node><node lat="43.704803" lon="-79.39816"  id="-50"  changeset="false" ><tag k="name" v="Famous Players Canada Square Cinemas"/><tag k="amenity" v="cinema"/><tag k="operator" v="Cineplex"/><tag k="addr:housenumber" v="2190"/><tag k="addr:street" v="Yonge Street"/><tag k="addr:postal_code" v="M4S 2C6"/><tag k="addr:city" v="Toronto"/><tag k="phone" v="416-646-2913"/><tag k="website" v="http://www.cineplex.com/Theatre/famous-players-canada-square-cinemas"/></node><node lat="43.669671" lon="-79.388759"  id="-51"  changeset="false" ><tag k="name" v="Cineplex Cinemas Varsity and VIP"/><tag k="amenity" v="cinema"/><tag k="operator" v="Cineplex"/><tag k="addr:housenumber" v="55"/><tag k="addr:street" v="Bloor Street West"/><tag k="addr:postal_code" v="M4W 1A5"/><tag k="addr:city" v="Toronto"/><tag k="phone" v="416-961-6304"/><tag k="website" v="http://www.cineplex.com/Theatre/cineplex-cinemas-varsity-and-vip"/></node><node lat="43.656746" lon="-79.380484"  id="-52"  changeset="false" ><tag k="name" v="Cineplex Cinemas Yonge-Dundas and VIP"/><tag k="amenity" v="cinema"/><tag k="operator" v="Cineplex"/><tag k="addr:housenumber" v="10"/><tag k="addr:street" v="Dundas Street East, Suite 402"/><tag k="addr:postal_code" v="M5B 2G9"/><tag k="addr:city" v="Toronto"/><tag k="phone" v="416-977-9262"/><tag k="website" v="http://www.cineplex.com/Theatre/cineplex-cinemas-yongedundas-and-vip"/></node><node lat="43.724762" lon="-79.45703"  id="-53"  changeset="false" ><tag k="name" v="Cineplex Cinemas Yorkdale"/><tag k="amenity" v="cinema"/><tag k="operator" v="Cineplex"/><tag k="addr:housenumber" v="3401"/><tag k="addr:street" v="Dufferin Street"/><tag k="addr:postal_code" v="M6A 2T9"/><tag k="addr:city" v="Toronto"/><tag k="website" v="http://www.cineplex.com/Theatre/cineplex-cinemas-yorkdale"/></node><node lat="43.649039" lon="-79.390559"  id="-54"  changeset="false" ><tag k="name" v="Scotiabank Theatre Toronto"/><tag k="amenity" v="cinema"/><tag k="operator" v="Cineplex"/><tag k="addr:housenumber" v="259"/><tag k="addr:street" v="Richmond Street West"/><tag k="addr:postal_code" v="M5V 3M6"/><tag k="addr:city" v="Toronto"/><tag k="phone" v="416-368-5600"/><tag k="website" v="http://www.cineplex.com/Theatre/scotiabank-theatre-toronto"/></node><node lat="43.788143" lon="-79.54477"  id="-55"  changeset="false" ><tag k="name" v="Cineplex Cinemas Vaughan"/><tag k="amenity" v="cinema"/><tag k="operator" v="Cineplex"/><tag k="addr:housenumber" v="3555"/><tag k="addr:street" v="Highway 7 West"/><tag k="addr:postal_code" v="L4L 6B1"/><tag k="addr:city" v="Vaughan"/><tag k="phone" v="905-851-1001"/><tag k="website" v="http://www.cineplex.com/Theatre/cineplex-cinemas-vaughan"/></node><node lat="43.621281" lon="-79.51546"  id="-56"  changeset="false" ><tag k="name" v="Cineplex Cinemas Queensway and VIP"/><tag k="amenity" v="cinema"/><tag k="operator" v="Cineplex"/><tag k="addr:housenumber" v="1025"/><tag k="addr:street" v="The Queensway"/><tag k="addr:postal_code" v="M8Z 6C7"/><tag k="addr:city" v="Etobicoke"/><tag k="phone" v="416-503-0424"/><tag k="website" v="http://www.cineplex.com/Theatre/cineplex-cinemas-queensway-and-vip"/></node><node lat="46.786632" lon="-71.35294"  id="-57"  changeset="false" ><tag k="name" v="Cinéma Cineplex Odeon Ste-Foy"/><tag k="amenity" v="cinema"/><tag k="operator" v="Cineplex"/><tag k="addr:housenumber" v="1200"/><tag k="addr:street" v="autoroute Duplessis"/><tag k="addr:postal_code" v="G2G 2B5"/><tag k="addr:city" v="St. Foy"/><tag k="phone" v="418-871-1550"/><tag k="website" v="http://www.cineplex.com/Theatre/cinema-cineplex-odeon-stefoy"/></node><node lat="44.501495" lon="-80.238369"  id="-58"  changeset="false" ><tag k="name" v="Galaxy Cinemas Collingwood"/><tag k="amenity" v="cinema"/><tag k="operator" v="Cineplex"/><tag k="addr:housenumber" v="6"/><tag k="addr:street" v="Mountain Road"/><tag k="addr:postal_code" v="L9Y 4S8"/><tag k="addr:city" v="Collingwood"/><tag k="phone" v="705-443-8478"/><tag k="website" v="http://www.cineplex.com/Theatre/galaxy-cinemas-collingwood"/></node><node lat="43.68036" lon="-79.714523"  id="-59"  changeset="false" ><tag k="name" v="Cineplex Odeon Orion Gate Cinemas "/><tag k="amenity" v="cinema"/><tag k="operator" v="Cineplex"/><tag k="addr:housenumber" v="20"/><tag k="addr:street" v="Biscayne Crescent, Highway 410 , Steeles Ave"/><tag k="addr:postal_code" v="L6W 4S1"/><tag k="addr:city" v="Brampton"/><tag k="phone" v="905-455-1590"/><tag k="website" v="http://www.cineplex.com/Theatre/cineplex-odeon-orion-gate-cinemas"/></node><node lat="43.731608" lon="-79.762431"  id="-60"  changeset="false" ><tag k="name" v="SilverCity Brampton Cinemas "/><tag k="amenity" v="cinema"/><tag k="operator" v="Cineplex"/><tag k="addr:housenumber" v="50"/><tag k="addr:street" v="Great Lakes Drive"/><tag k="addr:postal_code" v="L6R 2K7"/><tag k="addr:city" v="Brampton"/><tag k="phone" v="905-789-6785"/><tag k="website" v="http://www.cineplex.com/Theatre/silvercity-brampton-cinemas"/></node><node lat="46.831078" lon="-71.298718"  id="-61"  changeset="false" ><tag k="name" v="Cinéma Cineplex IMAX aux Galeries de la Capitale"/><tag k="amenity" v="cinema"/><tag k="operator" v="Cineplex"/><tag k="addr:housenumber" v="5401"/><tag k="addr:street" v="boulevard des Galeries"/><tag k="addr:postal_code" v="G2K 1N4"/><tag k="addr:city" v="Québec"/><tag k="phone" v="418-624-4629"/><tag k="website" v="http://www.cineplex.com/Theatre/cinema-cineplex-imax-aux-galeries-de-la-capitale"/></node><node lat="43.636624" lon="-79.6902"  id="-62"  changeset="false" ><tag k="name" v="Cineplex Cinemas Courtney Park"/><tag k="amenity" v="cinema"/><tag k="operator" v="Cineplex"/><tag k="addr:housenumber" v="110"/><tag k="addr:street" v="Courtneypark Dr E"/><tag k="addr:postal_code" v="L5T 2Y3"/><tag k="addr:city" v="Mississauga"/><tag k="phone" v="905-362-1234"/><tag k="website" v="http://www.cineplex.com/Theatre/cineplex-cinemas-courtney-park"/></node><node lat="43.591364" lon="-79.650364"  id="-63"  changeset="false" ><tag k="name" v="Cineplex Cinemas Mississauga"/><tag k="amenity" v="cinema"/><tag k="operator" v="Cineplex"/><tag k="addr:housenumber" v="309"/><tag k="addr:street" v="Rathburn Road West"/><tag k="addr:postal_code" v="L5B 4C1"/><tag k="addr:city" v="Mississauga"/><tag k="phone" v="905-275-3456"/><tag k="website" v="http://www.cineplex.com/Theatre/cineplex-cinemas-mississauga"/></node><node lat="43.068949" lon="-79.126126"  id="-64"  changeset="false" ><tag k="name" v="Cineplex Odeon Niagara Square Cinemas "/><tag k="amenity" v="cinema"/><tag k="operator" v="Cineplex"/><tag k="addr:housenumber" v="7555"/><tag k="addr:street" v="Montrose Road"/><tag k="addr:postal_code" v="L2H 2E9"/><tag k="addr:city" v="Niagara Falls"/><tag k="phone" v="905-357-1900"/><tag k="website" v="http://www.cineplex.com/Theatre/cineplex-odeon-niagara-square-cinemas"/></node><node lat="43.509563" lon="-79.669165"  id="-65"  changeset="false" ><tag k="name" v="Cineplex Cinemas Winston Churchill"/><tag k="amenity" v="cinema"/><tag k="operator" v="Cineplex"/><tag k="addr:housenumber" v="2081"/><tag k="addr:street" v="Winston Park Dr."/><tag k="addr:postal_code" v="L6H 6P5"/><tag k="addr:city" v="Oakville"/><tag k="phone" v="905-829-2009"/><tag k="website" v="http://www.cineplex.com/Theatre/cineplex-cinemas-winston-churchill"/></node><node lat="46.868069" lon="-71.206448"  id="-66"  changeset="false" ><tag k="name" v="Cinéma Cineplex Odeon Beauport"/><tag k="amenity" v="cinema"/><tag k="operator" v="Cineplex"/><tag k="addr:housenumber" v="825"/><tag k="addr:street" v="rue Clémenceau"/><tag k="addr:postal_code" v="G1C 2K6"/><tag k="addr:city" v="Beauport"/><tag k="phone" v="418-661-9494"/><tag k="website" v="http://www.cineplex.com/Theatre/cinema-cineplex-odeon-beauport"/></node><node lat="43.929264" lon="-80.094205"  id="-67"  changeset="false" ><tag k="name" v="Galaxy Cinemas Orangeville"/><tag k="amenity" v="cinema"/><tag k="operator" v="Cineplex"/><tag k="addr:housenumber" v="85"/><tag k="addr:street" v="Fifth Avenue"/><tag k="addr:postal_code" v="L9W 5B7"/><tag k="addr:city" v="Orangeville"/><tag k="website" v="http://www.cineplex.com/Theatre/galaxy-cinemas-orangeville"/></node><node lat="43.015427" lon="-79.249765"  id="-68"  changeset="false" ><tag k="name" v="Cineplex Odeon Seaway Mall Cinemas"/><tag k="amenity" v="cinema"/><tag k="operator" v="Cineplex"/><tag k="addr:housenumber" v="800"/><tag k="addr:street" v="Niagara Street"/><tag k="addr:postal_code" v="L3C 1M3"/><tag k="addr:city" v="Welland"/><tag k="phone" v="905-735-5286"/><tag k="website" v="http://www.cineplex.com/Theatre/cineplex-odeon-seaway-mall-cinemas"/></node><node lat="43.537856" lon="-79.869224"  id="-69"  changeset="false" ><tag k="name" v="Cineplex Cinemas Milton"/><tag k="amenity" v="cinema"/><tag k="operator" v="Cineplex"/><tag k="addr:housenumber" v="1175"/><tag k="addr:street" v="Maple Avenue"/><tag k="addr:postal_code" v="L9T 0A5"/><tag k="addr:city" v="Milton"/><tag k="phone" v="905-864-1666"/><tag k="website" v="http://www.cineplex.com/Theatre/cineplex-cinemas-milton"/></node><node lat="43.39358" lon="-79.750861"  id="-70"  changeset="false" ><tag k="name" v="Cineplex Cinemas Oakville and VIP"/><tag k="amenity" v="cinema"/><tag k="operator" v="Cineplex"/><tag k="addr:housenumber" v="3531"/><tag k="addr:street" v="Wyecroft Road"/><tag k="addr:postal_code" v="L6L 0B7"/><tag k="addr:city" v="Oakville"/><tag k="phone" v="905-827-7173"/><tag k="website" v="http://www.cineplex.com/Theatre/cineplex-cinemas-oakville-and-vip"/></node><node lat="43.343731" lon="-79.829648"  id="-71"  changeset="false" ><tag k="name" v="SilverCity Burlington Cinemas"/><tag k="amenity" v="cinema"/><tag k="operator" v="Cineplex"/><tag k="addr:housenumber" v="1250"/><tag k="addr:street" v="Brant Street"/><tag k="addr:postal_code" v="L7P 1X8"/><tag k="addr:city" v="Burlington"/><tag k="phone" v="905-319-8677"/><tag k="website" v="http://www.cineplex.com/Theatre/silvercity-burlington-cinemas"/></node><node lat="43.19191" lon="-79.810529"  id="-72"  changeset="false" ><tag k="name" v="SilverCity Hamilton Mountain Cinemas "/><tag k="amenity" v="cinema"/><tag k="operator" v="Cineplex"/><tag k="addr:housenumber" v="795"/><tag k="addr:street" v="Paramount Drive"/><tag k="addr:postal_code" v="L8J 0B4"/><tag k="addr:city" v="Stoney Creek"/><tag k="phone" v="905-560-0239"/><tag k="website" v="http://www.cineplex.com/Theatre/silvercity-hamilton-mountain-cinemas"/></node><node lat="43.500694" lon="-80.188443"  id="-73"  changeset="false" ><tag k="name" v="Galaxy Cinemas Pergola Commons"/><tag k="amenity" v="cinema"/><tag k="operator" v="Cineplex"/><tag k="addr:housenumber" v="85"/><tag k="addr:street" v="Clair Road East"/><tag k="addr:postal_code" v="N1L 0J7"/><tag k="addr:city" v="Guelph"/><tag k="phone" v="519-821-3468"/><tag k="website" v="http://www.cineplex.com/Theatre/galaxy-cinemas-pergola-commons"/></node><node lat="43.22599" lon="-79.951812"  id="-74"  changeset="false" ><tag k="name" v="Cineplex Cinemas Ancaster (formerly SilverCity Ancaster) "/><tag k="amenity" v="cinema"/><tag k="operator" v="Cineplex"/><tag k="addr:housenumber" v="771"/><tag k="addr:street" v="Golf Links Road"/><tag k="addr:postal_code" v="L9G 3K9"/><tag k="addr:city" v="Ancaster"/><tag k="phone" v="905-304-5888"/><tag k="website" v="http://www.cineplex.com/Theatre/cineplex-cinemas-ancaster-formerly-silvercity-ancaster"/></node><node lat="43.542834" lon="-80.308209"  id="-75"  changeset="false" ><tag k="name" v="Galaxy Cinemas Guelph"/><tag k="amenity" v="cinema"/><tag k="operator" v="Cineplex"/><tag k="addr:housenumber" v="485"/><tag k="addr:street" v="Woodlawn Road West"/><tag k="addr:postal_code" v="N1K 1E9"/><tag k="addr:city" v="Guelph"/><tag k="phone" v="519-763-9188"/><tag k="website" v="http://www.cineplex.com/Theatre/galaxy-cinemas-guelph"/></node><node lat="46.501834" lon="-80.946922"  id="-76"  changeset="false" ><tag k="name" v="SilverCity Sudbury Cinemas "/><tag k="amenity" v="cinema"/><tag k="operator" v="Cineplex"/><tag k="addr:housenumber" v="355"/><tag k="addr:street" v="Barrydowne Road"/><tag k="addr:postal_code" v="P3B 4K4"/><tag k="addr:city" v="Sudbury"/><tag k="phone" v="705-521-0649"/><tag k="website" v="http://www.cineplex.com/Theatre/silvercity-sudbury-cinemas"/></node><node lat="44.56164" lon="-80.966985"  id="-77"  changeset="false" ><tag k="name" v="Galaxy Cinemas Owen Sound"/><tag k="amenity" v="cinema"/><tag k="operator" v="Cineplex"/><tag k="addr:housenumber" v="1020"/><tag k="addr:street" v="10th Street West"/><tag k="addr:postal_code" v="N4K 5S1"/><tag k="addr:city" v="Owen Sound"/><tag k="phone" v="519-371-5222"/><tag k="website" v="http://www.cineplex.com/Theatre/galaxy-cinemas-owen-sound"/></node><node lat="43.391982" lon="-80.322762"  id="-78"  changeset="false" ><tag k="name" v="Galaxy Cinemas Cambridge"/><tag k="amenity" v="cinema"/><tag k="operator" v="Cineplex"/><tag k="addr:housenumber" v="355"/><tag k="addr:street" v="Hespeler Road"/><tag k="addr:postal_code" v="N1R 6B3"/><tag k="addr:city" v="Cambridge"/><tag k="phone" v="519-740-3456"/><tag k="website" v="http://www.cineplex.com/Theatre/galaxy-cinemas-cambridge"/></node><node lat="43.420591" lon="-80.438696"  id="-79"  changeset="false" ><tag k="name" v="Cineplex Cinemas Kitchener and VIP"/><tag k="amenity" v="cinema"/><tag k="operator" v="Cineplex"/><tag k="addr:housenumber" v="225"/><tag k="addr:street" v="Fairway Road South"/><tag k="addr:postal_code" v="N2C 1X2"/><tag k="addr:city" v="Kitchener"/><tag k="phone" v="226-240-3825"/><tag k="website" v="http://www.cineplex.com/Theatre/cineplex-cinemas-kitchener-and-vip"/></node><node lat="43.495149" lon="-80.529056"  id="-80"  changeset="false" ><tag k="name" v="Galaxy Cinemas Waterloo"/><tag k="amenity" v="cinema"/><tag k="operator" v="Cineplex"/><tag k="addr:housenumber" v="550"/><tag k="addr:street" v="King Street North"/><tag k="addr:postal_code" v="N2L 5W6"/><tag k="addr:city" v="Waterloo"/><tag k="phone" v="519-883-8843"/><tag k="website" v="http://www.cineplex.com/Theatre/galaxy-cinemas-waterloo"/></node><node lat="43.18197" lon="-80.281102"  id="-81"  changeset="false" ><tag k="name" v="Galaxy Cinemas Brantford"/><tag k="amenity" v="cinema"/><tag k="operator" v="Cineplex"/><tag k="addr:housenumber" v="300"/><tag k="addr:street" v="King George Road"/><tag k="addr:postal_code" v="N3R 5L7"/><tag k="addr:city" v="Brantford"/><tag k="phone" v="519-759-7011"/><tag k="website" v="http://www.cineplex.com/Theatre/galaxy-cinemas-brantford"/></node><node lat="43.025272" lon="-81.281706"  id="-82"  changeset="false" ><tag k="name" v="SilverCity London Cinemas "/><tag k="amenity" v="cinema"/><tag k="operator" v="Cineplex"/><tag k="addr:housenumber" v="1680"/><tag k="addr:street" v="Richmond Street"/><tag k="addr:postal_code" v="N6G 3Y9"/><tag k="addr:city" v="London"/><tag k="phone" v="519-673-4125"/><tag k="website" v="http://www.cineplex.com/Theatre/silvercity-london-cinemas"/></node><node lat="42.949178" lon="-81.289644"  id="-83"  changeset="false" ><tag k="name" v="Cineplex Odeon Westmount Cinemas and VIP"/><tag k="amenity" v="cinema"/><tag k="operator" v="Cineplex"/><tag k="addr:housenumber" v="755"/><tag k="addr:street" v="Wonderland Road South"/><tag k="addr:postal_code" v="N6K 1M6"/><tag k="addr:city" v="London"/><tag k="phone" v="519-474-2152"/><tag k="website" v="http://www.cineplex.com/Theatre/cineplex-odeon-westmount-cinemas-and-vip"/></node><node lat="42.774653" lon="-81.159557"  id="-84"  changeset="false" ><tag k="name" v="Galaxy Cinemas St. Thomas"/><tag k="amenity" v="cinema"/><tag k="operator" v="Cineplex"/><tag k="addr:housenumber" v="417"/><tag k="addr:street" v="Wellington Street"/><tag k="addr:postal_code" v="N5R 5J5"/><tag k="addr:city" v="St. Thomas"/><tag k="phone" v="519-631-5777"/><tag k="website" v="http://www.cineplex.com/Theatre/galaxy-cinemas-st-thomas"/></node><node lat="42.980288" lon="-82.353555"  id="-85"  changeset="false" ><tag k="name" v="Galaxy Cinemas Sarnia"/><tag k="amenity" v="cinema"/><tag k="operator" v="Cineplex"/><tag k="addr:housenumber" v="1380"/><tag k="addr:street" v="London Road"/><tag k="addr:postal_code" v="N7S 1P7"/><tag k="addr:city" v="Sarnia"/><tag k="phone" v="519-541-0959"/><tag k="website" v="http://www.cineplex.com/Theatre/galaxy-cinemas-sarnia"/></node><node lat="42.428469" lon="-82.216592"  id="-86"  changeset="false" ><tag k="name" v="Galaxy Cinemas Chatham"/><tag k="amenity" v="cinema"/><tag k="operator" v="Cineplex"/><tag k="addr:housenumber" v="760"/><tag k="addr:street" v="St. Clair Street"/><tag k="addr:postal_code" v="N7L 0E8"/><tag k="addr:city" v="Chatham"/><tag k="phone" v="519-354-0282"/><tag k="website" v="http://www.cineplex.com/Theatre/galaxy-cinemas-chatham"/></node><node lat="46.511448" lon="-84.339788"  id="-87"  changeset="false" ><tag k="name" v="Galaxy Cinemas Sault Ste Marie"/><tag k="amenity" v="cinema"/><tag k="operator" v="Cineplex"/><tag k="addr:housenumber" v="293"/><tag k="addr:street" v="Bay Street"/><tag k="addr:postal_code" v="P6A 1X3"/><tag k="addr:city" v="Sault Ste. Mari"/><tag k="phone" v="705-949-7949"/><tag k="website" v="http://www.cineplex.com/Theatre/galaxy-cinemas-sault-ste-marie"/></node><node lat="42.252897" lon="-82.963131"  id="-88"  changeset="false" ><tag k="name" v="SilverCity Windsor Cinemas "/><tag k="amenity" v="cinema"/><tag k="operator" v="Cineplex"/><tag k="addr:housenumber" v="4611"/><tag k="addr:street" v="Walker Road"/><tag k="addr:postal_code" v="N8W 3T6"/><tag k="addr:city" v="Windsor"/><tag k="phone" v="519-966-6888"/><tag k="website" v="http://www.cineplex.com/Theatre/silvercity-windsor-cinemas"/></node><node lat="42.274161" lon="-82.999016"  id="-89"  changeset="false" ><tag k="name" v="Cineplex Odeon Devonshire Mall Cinemas"/><tag k="amenity" v="cinema"/><tag k="operator" v="Cineplex"/><tag k="addr:housenumber" v="3100"/><tag k="addr:street" v="Howard Avenue"/><tag k="addr:postal_code" v="N8X 3Y8"/><tag k="addr:city" v="Windsor"/><tag k="phone" v="519-967-0197"/><tag k="website" v="http://www.cineplex.com/Theatre/cineplex-odeon-devonshire-mall-cinemas"/></node><node lat="45.934473" lon="-66.664109"  id="-90"  changeset="false" ><tag k="name" v="Cineplex Cinemas Fredericton"/><tag k="amenity" v="cinema"/><tag k="operator" v="Cineplex"/><tag k="addr:housenumber" v="1381"/><tag k="addr:street" v="Regent Street"/><tag k="addr:postal_code" v="E3C 1A2"/><tag k="addr:city" v="Fredericton"/><tag k="phone" v="506-458-9704"/><tag k="website" v="http://www.cineplex.com/Theatre/cineplex-cinemas-fredericton"/></node><node lat="45.311228" lon="-66.015635"  id="-91"  changeset="false" ><tag k="name" v="Cineplex Cinemas Saint John"/><tag k="amenity" v="cinema"/><tag k="operator" v="Cineplex"/><tag k="addr:housenumber" v="175"/><tag k="addr:street" v="McAllister Drive"/><tag k="addr:postal_code" v="E2J 2S6"/><tag k="addr:city" v="Saint John"/><tag k="phone" v="506-657-3456"/><tag k="website" v="http://www.cineplex.com/Theatre/cineplex-cinemas-saint-john"/></node><node lat="43.845455" lon="-66.110852"  id="-92"  changeset="false" ><tag k="name" v="Cineplex Cinemas Yarmouth"/><tag k="amenity" v="cinema"/><tag k="operator" v="Cineplex"/><tag k="addr:housenumber" v="136"/><tag k="addr:street" v="Starrs Road"/><tag k="addr:postal_code" v="B5A 4E5"/><tag k="addr:city" v="Yarmouth"/><tag k="phone" v="902-742-7819"/><tag k="website" v="http://www.cineplex.com/Theatre/cineplex-cinemas-yarmouth"/></node><node lat="47.029302" lon="-65.49124"  id="-93"  changeset="false" ><tag k="name" v="Cineplex Cinemas Miramichi"/><tag k="amenity" v="cinema"/><tag k="operator" v="Cineplex"/><tag k="addr:housenumber" v="2480"/><tag k="addr:street" v="King George Highway"/><tag k="addr:postal_code" v="E1V 6W4"/><tag k="addr:city" v="Miramichi"/><tag k="phone" v="506-778-3456"/><tag k="website" v="http://www.cineplex.com/Theatre/cineplex-cinemas-miramichi"/></node><node lat="46.115625" lon="-64.831869"  id="-94"  changeset="false" ><tag k="name" v="Cineplex Cinemas Trinity Drive"/><tag k="amenity" v="cinema"/><tag k="operator" v="Cineplex"/><tag k="addr:housenumber" v="127"/><tag k="addr:street" v="Trinity Drive"/><tag k="addr:postal_code" v="E1G 2J7"/><tag k="addr:city" v="Moncton"/><tag k="phone" v="506-857-8903"/><tag k="website" v="http://www.cineplex.com/Theatre/cineplex-cinemas-trinity-drive"/></node><node lat="46.098639" lon="-64.765375"  id="-95"  changeset="false" ><tag k="name" v="Cineplex Cinemas Dieppe"/><tag k="amenity" v="cinema"/><tag k="operator" v="Cineplex"/><tag k="addr:housenumber" v="1"/><tag k="addr:street" v="Promenade Bass Pro Drive"/><tag k="addr:postal_code" v="E1A 6S2"/><tag k="addr:city" v="Dieppe"/><tag k="phone" v="506-382-2095"/><tag k="website" v="http://www.cineplex.com/Theatre/cineplex-cinemas-dieppe"/></node><node lat="45.068146" lon="-64.462638"  id="-96"  changeset="false" ><tag k="name" v="Cineplex Cinemas New Minas"/><tag k="amenity" v="cinema"/><tag k="operator" v="Cineplex"/><tag k="addr:housenumber" v="8944"/><tag k="addr:street" v="Commercial Street"/><tag k="addr:postal_code" v="B4N 3C9"/><tag k="addr:city" v="New Minas"/><tag k="phone" v="902-681-8080"/><tag k="website" v="http://www.cineplex.com/Theatre/cineplex-cinemas-new-minas"/></node><node lat="44.376604" lon="-64.512426"  id="-97"  changeset="false" ><tag k="name" v="Cineplex Cinemas Bridgewater"/><tag k="amenity" v="cinema"/><tag k="operator" v="Cineplex"/><tag k="addr:housenumber" v="349"/><tag k="addr:street" v="Lahave Street"/><tag k="addr:postal_code" v="B4V 2T6"/><tag k="addr:city" v="Bridgewater"/><tag k="phone" v="902-527-4025"/><tag k="website" v="http://www.cineplex.com/Theatre/cineplex-cinemas-bridgewater"/></node><node lat="45.832563" lon="-64.211289"  id="-98"  changeset="false" ><tag k="name" v="Cineplex Cinemas Amherst"/><tag k="amenity" v="cinema"/><tag k="operator" v="Cineplex"/><tag k="addr:housenumber" v="47"/><tag k="addr:street" v="Church Street"/><tag k="addr:postal_code" v="B4H 3A7"/><tag k="addr:city" v="Amherst"/><tag k="phone" v="902-667-3456"/><tag k="website" v="http://www.cineplex.com/Theatre/cineplex-cinemas-amherst"/></node><node lat="46.410838" lon="-63.778634"  id="-99"  changeset="false" ><tag k="name" v="Cineplex Cinemas Summerside"/><tag k="amenity" v="cinema"/><tag k="operator" v="Cineplex"/><tag k="addr:housenumber" v="130"/><tag k="addr:street" v="Ryan Street"/><tag k="addr:postal_code" v="C1N 6G2"/><tag k="addr:city" v="Summerside"/><tag k="phone" v="902-888-3456"/><tag k="website" v="http://www.cineplex.com/Theatre/cineplex-cinemas-summerside"/></node><node lat="44.772839" lon="-63.69228"  id="-100"  changeset="false" ><tag k="name" v="Cineplex Cinemas Lower Sackville"/><tag k="amenity" v="cinema"/><tag k="operator" v="Cineplex"/><tag k="addr:housenumber" v="760"/><tag k="addr:street" v="Sackville Drive"/><tag k="addr:postal_code" v="B4E 1R7"/><tag k="addr:city" v="Lower Sackville"/><tag k="phone" v="902-869-2022"/><tag k="website" v="http://www.cineplex.com/Theatre/cineplex-cinemas-lower-sackville"/></node><node lat="44.648758" lon="-63.674925"  id="-101"  changeset="false" ><tag k="name" v="Scotiabank Theatre Halifax"/><tag k="amenity" v="cinema"/><tag k="operator" v="Cineplex"/><tag k="addr:housenumber" v="190"/><tag k="addr:street" v="Chain Lake Drive"/><tag k="addr:postal_code" v="B3S 1C5"/><tag k="addr:city" v="Halifax"/><tag k="website" v="http://www.cineplex.com/Theatre/scotiabank-theatre-halifax"/></node><node lat="44.644399" lon="-63.600567"  id="-102"  changeset="false" ><tag k="name" v="Cineplex Cinemas Oxford"/><tag k="amenity" v="cinema"/><tag k="operator" v="Cineplex"/><tag k="addr:housenumber" v="6408"/><tag k="addr:street" v="Quinpool Road"/><tag k="addr:postal_code" v="B3L 1A8"/><tag k="addr:city" v="Halifax"/><tag k="phone" v="902-423-7488"/><tag k="website" v="http://www.cineplex.com/Theatre/cineplex-cinemas-oxford"/></node><node lat="44.642611" lon="-63.578709"  id="-103"  changeset="false" ><tag k="name" v="Cineplex Cinemas Park Lane"/><tag k="amenity" v="cinema"/><tag k="operator" v="Cineplex"/><tag k="addr:housenumber" v="5657"/><tag k="addr:street" v="Spring Garden Road"/><tag k="addr:postal_code" v="B3J 3R4"/><tag k="addr:city" v="Halifax"/><tag k="phone" v="902-423-4598"/><tag k="website" v="http://www.cineplex.com/Theatre/cineplex-cinemas-park-lane"/></node><node lat="44.706888" lon="-63.560853"  id="-104"  changeset="false" ><tag k="name" v="Cineplex Cinemas Dartmouth Crossing"/><tag k="amenity" v="cinema"/><tag k="operator" v="Cineplex"/><tag k="addr:housenumber" v="145"/><tag k="addr:street" v="Shubie Drive"/><tag k="addr:postal_code" v="B3B 0C3"/><tag k="addr:city" v="Dartmouth"/><tag k="phone" v="902-481-3251"/><tag k="website" v="http://www.cineplex.com/Theatre/cineplex-cinemas-dartmouth-crossing"/></node><node lat="45.33346" lon="-63.305152"  id="-105"  changeset="false" ><tag k="name" v="Cineplex Cinemas Truro"/><tag k="amenity" v="cinema"/><tag k="operator" v="Cineplex"/><tag k="addr:housenumber" v="20"/><tag k="addr:street" v="Treaty Trail"/><tag k="addr:postal_code" v="B6L 1W2"/><tag k="addr:city" v="Truro"/><tag k="phone" v="902-895-8022"/><tag k="website" v="http://www.cineplex.com/Theatre/cineplex-cinemas-truro"/></node><node lat="46.26507" lon="-63.147253"  id="-106"  changeset="false" ><tag k="name" v="Cineplex Cinemas Charlottetown"/><tag k="amenity" v="cinema"/><tag k="operator" v="Cineplex"/><tag k="addr:housenumber" v="670"/><tag k="addr:street" v="University Avenue"/><tag k="addr:postal_code" v="C1A 7M4"/><tag k="addr:city" v="West Royalty"/><tag k="phone" v="902-892-0943"/><tag k="website" v="http://www.cineplex.com/Theatre/cineplex-cinemas-charlottetown"/></node><node lat="45.576806" lon="-62.641796"  id="-107"  changeset="false" ><tag k="name" v="Cineplex Cinemas New Glasgow"/><tag k="amenity" v="cinema"/><tag k="operator" v="Cineplex"/><tag k="addr:housenumber" v="612"/><tag k="addr:street" v="East River Road"/><tag k="addr:postal_code" v="B2H 3S2"/><tag k="addr:city" v="New Glasgow"/><tag k="phone" v="902-928-0550"/><tag k="website" v="http://www.cineplex.com/Theatre/cineplex-cinemas-new-glasgow"/></node><node lat="45.622396" lon="-61.992626"  id="-108"  changeset="false" ><tag k="name" v="Cineplex Cinemas Antigonish"/><tag k="amenity" v="cinema"/><tag k="operator" v="Cineplex"/><tag k="addr:housenumber" v="291"/><tag k="addr:street" v="Main Street"/><tag k="addr:postal_code" v="B2G 2C3"/><tag k="addr:city" v="Antigonish"/><tag k="phone" v="902-863-4646"/><tag k="website" v="http://www.cineplex.com/Theatre/cineplex-cinemas-antigonish"/></node><node lat="48.39842" lon="-89.245333"  id="-109"  changeset="false" ><tag k="name" v="SilverCity Thunder Bay Cinemas "/><tag k="amenity" v="cinema"/><tag k="operator" v="Cineplex"/><tag k="addr:housenumber" v="850"/><tag k="addr:street" v="North May Street"/><tag k="addr:postal_code" v="P7C 6A5"/><tag k="addr:city" v="Thunder Bay"/><tag k="phone" v="807-628-8455"/><tag k="website" v="http://www.cineplex.com/Theatre/silvercity-thunder-bay-cinemas"/></node><node lat="46.139653" lon="-60.186429"  id="-110"  changeset="false" ><tag k="name" v="Cineplex Cinemas Sydney"/><tag k="amenity" v="cinema"/><tag k="operator" v="Cineplex"/><tag k="addr:housenumber" v="325"/><tag k="addr:street" v="Prince Street"/><tag k="addr:postal_code" v="B1P 5K6"/><tag k="addr:city" v="Sydney"/><tag k="phone" v="902-539-9050"/><tag k="website" v="http://www.cineplex.com/Theatre/cineplex-cinemas-sydney"/></node><node lat="48.952309" lon="-57.950603"  id="-111"  changeset="false" ><tag k="name" v="Cineplex Cinemas Millbrook"/><tag k="amenity" v="cinema"/><tag k="operator" v="Cineplex"/><tag k="addr:housenumber" v="2"/><tag k="addr:street" v="Main Street"/><tag k="addr:postal_code" v="A2H 6G7"/><tag k="addr:city" v="Corner Brook"/><tag k="phone" v="709-634-2074"/><tag k="website" v="http://www.cineplex.com/Theatre/cineplex-cinemas-millbrook"/></node><node lat="49.897277" lon="-97.061825"  id="-112"  changeset="false" ><tag k="name" v="Famous Players Kildonan Place Cinemas"/><tag k="amenity" v="cinema"/><tag k="operator" v="Cineplex"/><tag k="addr:housenumber" v="1555"/><tag k="addr:street" v="Regent Avenue West"/><tag k="addr:postal_code" v="R2C 4J2"/><tag k="addr:city" v="Winnipeg"/><tag k="phone" v="204-663-2166"/><tag k="website" v="http://www.cineplex.com/Theatre/famous-players-kildonan-place-cinemas"/></node><node lat="49.828994" lon="-97.114537"  id="-113"  changeset="false" ><tag k="name" v="SilverCity St. Vital Cinemas"/><tag k="amenity" v="cinema"/><tag k="operator" v="Cineplex"/><tag k="addr:housenumber" v="160-1225"/><tag k="addr:street" v="St. Mary's Road"/><tag k="addr:postal_code" v="R2M 5E5"/><tag k="addr:city" v="Winnipeg"/><tag k="phone" v="204-256-3901"/><tag k="website" v="http://www.cineplex.com/Theatre/silvercity-st-vital-cinemas"/></node><node lat="49.941641" lon="-97.157569"  id="-114"  changeset="false" ><tag k="name" v="Cinema City Northgate"/><tag k="amenity" v="cinema"/><tag k="operator" v="Cineplex"/><tag k="addr:housenumber" v="1399"/><tag k="addr:street" v="McPhillips Street"/><tag k="addr:postal_code" v="R2V 3C4"/><tag k="addr:city" v="Winnipeg"/><tag k="phone" v="204-334-6253"/><tag k="website" v="http://www.cineplex.com/Theatre/cinema-city-northgate"/></node><node lat="49.820128" lon="-97.203906"  id="-115"  changeset="false" ><tag k="name" v="Cineplex Odeon McGillivray Cinemas and VIP"/><tag k="amenity" v="cinema"/><tag k="operator" v="Cineplex"/><tag k="addr:housenumber" v="2190"/><tag k="addr:street" v="McGillivray Boulevard"/><tag k="addr:postal_code" v="R3Y 1S6"/><tag k="addr:city" v="Winnipeg"/><tag k="phone" v="204-269-9981"/><tag k="website" v="http://www.cineplex.com/Theatre/cineplex-odeon-mcgillivray-cinemas-and-vip"/></node><node lat="49.887586" lon="-97.200921"  id="-116"  changeset="false" ><tag k="name" v="Scotiabank Theatre Winnipeg (Formerly SilverCity Polo Park)"/><tag k="amenity" v="cinema"/><tag k="operator" v="Cineplex"/><tag k="addr:housenumber" v="817"/><tag k="addr:street" v="St. James Street"/><tag k="addr:postal_code" v="R3G 3L3"/><tag k="addr:city" v="Winnipeg"/><tag k="phone" v="204-774-1001"/><tag k="website" v="http://www.cineplex.com/Theatre/scotiabank-theatre-winnipeg-formerly-silvercity-polo-park"/></node><node lat="47.523239" lon="-52.78068"  id="-117"  changeset="false" ><tag k="name" v="Cineplex Cinemas Mount Pearl"/><tag k="amenity" v="cinema"/><tag k="operator" v="Cineplex"/><tag k="addr:housenumber" v="760"/><tag k="addr:street" v="Topsail Road"/><tag k="addr:postal_code" v="A1N 3J5"/><tag k="addr:city" v="St. John's"/><tag k="phone" v="709-364-8503"/><tag k="website" v="http://www.cineplex.com/Theatre/cineplex-cinemas-mount-pearl"/></node><node lat="47.56109" lon="-52.754355"  id="-118"  changeset="false" ><tag k="name" v="Scotiabank Theatre St. John's (formerly Cineplex Avalon Mall)"/><tag k="amenity" v="cinema"/><tag k="operator" v="Cineplex"/><tag k="addr:housenumber" v="48"/><tag k="addr:street" v="Kenmount Road"/><tag k="addr:postal_code" v="A1B 1W3"/><tag k="addr:city" v="St. John's"/><tag k="website" v="http://www.cineplex.com/Theatre/scotiabank-theatre-st-johns-formerly-cineplex-avalon-mall"/></node><node lat="50.404798" lon="-104.624895"  id="-119"  changeset="false" ><tag k="name" v="Cineplex Odeon Southland Mall Cinemas"/><tag k="amenity" v="cinema"/><tag k="operator" v="Cineplex"/><tag k="addr:housenumber" v="3025"/><tag k="addr:street" v="Gordon Road"/><tag k="addr:postal_code" v="S4S 6H7"/><tag k="addr:city" v="Regina"/><tag k="phone" v="306-585-3383"/><tag k="website" v="http://www.cineplex.com/Theatre/cineplex-odeon-southland-mall-cinemas"/></node><node lat="50.483053" lon="-104.666147"  id="-120"  changeset="false" ><tag k="name" v="Cineplex Cinemas Regina (formerly Galaxy Cinemas)"/><tag k="amenity" v="cinema"/><tag k="operator" v="Cineplex"/><tag k="addr:housenumber" v="420"/><tag k="addr:street" v="McCarthy Boulevard North"/><tag k="addr:postal_code" v="S4R 7M2"/><tag k="addr:unit" v="26"/><tag k="addr:city" v="Regina"/><tag k="phone" v="306-522-9098"/><tag k="website" v="http://www.cineplex.com/Theatre/cineplex-cinemas-regina-formerly-galaxy-cinemas"/></node><node lat="50.410241" lon="-105.533895"  id="-121"  changeset="false" ><tag k="name" v="Galaxy Cinemas Moose Jaw"/><tag k="amenity" v="cinema"/><tag k="operator" v="Cineplex"/><tag k="addr:housenumber" v="1235"/><tag k="addr:street" v="Main Street North"/><tag k="addr:postal_code" v="S6H 6M4"/><tag k="addr:city" v="Moose Jaw"/><tag k="phone" v="306-693-3456"/><tag k="website" v="http://www.cineplex.com/Theatre/galaxy-cinemas-moose-jaw"/></node><node lat="53.185984" lon="-105.760445"  id="-122"  changeset="false" ><tag k="name" v="Galaxy Cinemas Prince Albert"/><tag k="amenity" v="cinema"/><tag k="operator" v="Cineplex"/><tag k="addr:housenumber" v="2995"/><tag k="addr:street" v="2nd Avenue West"/><tag k="addr:postal_code" v="S6V 5V5"/><tag k="addr:unit" v="1C"/><tag k="addr:city" v="Prince Albert"/><tag k="phone" v="306-922-5970"/><tag k="website" v="http://www.cineplex.com/Theatre/galaxy-cinemas-prince-albert"/></node><node lat="52.114637" lon="-106.593908"  id="-123"  changeset="false" ><tag k="name" v="Cineplex Odeon Centre Cinemas"/><tag k="amenity" v="cinema"/><tag k="operator" v="Cineplex"/><tag k="addr:housenumber" v="3510-8th"/><tag k="addr:street" v="Street"/><tag k="addr:postal_code" v="S7H 0W6"/><tag k="addr:city" v="Saskatoon"/><tag k="phone" v="306-955-1938"/><tag k="website" v="http://www.cineplex.com/Theatre/cineplex-odeon-centre-cinemas"/></node><node lat="52.124937" lon="-106.665885"  id="-124"  changeset="false" ><tag k="name" v="Scotiabank Theatre Saskatoon and VIP"/><tag k="amenity" v="cinema"/><tag k="operator" v="Cineplex"/><tag k="addr:housenumber" v="347-2nd"/><tag k="addr:street" v="Avenue South"/><tag k="addr:postal_code" v="S7K 1L1"/><tag k="addr:city" v="Saskatoon"/><tag k="phone" v="306-664-5060"/><tag k="website" v="http://www.cineplex.com/Theatre/scotiabank-theatre-saskatoon-and-vip"/></node><node lat="50.00336" lon="-110.642892"  id="-125"  changeset="false" ><tag k="name" v="Galaxy Cinemas Medicine Hat"/><tag k="amenity" v="cinema"/><tag k="operator" v="Cineplex"/><tag k="addr:housenumber" v="3292"/><tag k="addr:street" v="Dunmore Road SE"/><tag k="addr:postal_code" v="T1B 2R4"/><tag k="addr:city" v="Medicine Hat"/><tag k="phone" v="403-504-5477"/><tag k="website" v="http://www.cineplex.com/Theatre/galaxy-cinemas-medicine-hat"/></node><node lat="49.698069" lon="-112.840199"  id="-126"  changeset="false" ><tag k="name" v="Galaxy Cinemas Lethbridge"/><tag k="amenity" v="cinema"/><tag k="operator" v="Cineplex"/><tag k="addr:housenumber" v="501-1st"/><tag k="addr:street" v="Avenue South West"/><tag k="addr:postal_code" v="T1J 0A1"/><tag k="addr:city" v="Lethbridge"/><tag k="phone" v="403-329-0002"/><tag k="website" v="http://www.cineplex.com/Theatre/galaxy-cinemas-lethbridge"/></node><node lat="53.531687" lon="-113.294106"  id="-127"  changeset="false" ><tag k="name" v="Cineplex Cinemas Sherwood Park (formerly Galaxy Cinemas)"/><tag k="amenity" v="cinema"/><tag k="operator" v="Cineplex"/><tag k="addr:housenumber" v="2020"/><tag k="addr:street" v="Sherwood Drive"/><tag k="addr:postal_code" v="T8A 3H9"/><tag k="addr:city" v="Sherwood Park"/><tag k="phone" v="780-416-0152"/><tag k="website" v="http://www.cineplex.com/Theatre/cineplex-cinemas-sherwood-park-formerly-galaxy-cinemas"/></node><node lat="53.61596" lon="-113.39065"  id="-128"  changeset="false" ><tag k="name" v="Cineplex Cinemas Manning Town Centre"/><tag k="amenity" v="cinema"/><tag k="operator" v="Cineplex"/><tag k="addr:housenumber" v="15531"/><tag k="addr:street" v="37 ST NW"/><tag k="addr:postal_code" v="T5Y 0S5"/><tag k="addr:city" v="Edmonton"/><tag k="phone" v="780-476-7807"/><tag k="website" v="http://www.cineplex.com/Theatre/cineplex-cinemas-manning-town-centre"/></node><node lat="53.590033" lon="-113.420258"  id="-129"  changeset="false" ><tag k="name" v="Cinema City Movies 12"/><tag k="amenity" v="cinema"/><tag k="operator" v="Cineplex"/><tag k="addr:housenumber" v="5074"/><tag k="addr:street" v="130 Avenue"/><tag k="addr:postal_code" v="T5A 5A9"/><tag k="addr:city" v="Edmonton"/><tag k="phone" v="780-472-9779"/><tag k="website" v="http://www.cineplex.com/Theatre/cinema-city-movies-12"/></node><node lat="53.445599" lon="-113.481882"  id="-130"  changeset="false" ><tag k="name" v="Cineplex Odeon South Edmonton Cinemas"/><tag k="amenity" v="cinema"/><tag k="operator" v="Cineplex"/><tag k="addr:housenumber" v="1525-99th"/><tag k="addr:street" v="Street NW"/><tag k="addr:postal_code" v="T6N 1K5"/><tag k="addr:city" v="Edmonton"/><tag k="phone" v="780-436-8585"/><tag k="website" v="http://www.cineplex.com/Theatre/cineplex-odeon-south-edmonton-cinemas"/></node><node lat="53.599254" lon="-113.569199"  id="-131"  changeset="false" ><tag k="name" v="Cineplex Odeon North Edmonton Cinemas"/><tag k="amenity" v="cinema"/><tag k="operator" v="Cineplex"/><tag k="addr:housenumber" v="14231-137th"/><tag k="addr:street" v="Avenue"/><tag k="addr:postal_code" v="T5L 5E8"/><tag k="addr:city" v="Edmonton"/><tag k="phone" v="780-732-2236"/><tag k="website" v="http://www.cineplex.com/Theatre/cineplex-odeon-north-edmonton-cinemas"/></node><node lat="53.43592" lon="-113.599148"  id="-132"  changeset="false" ><tag k="name" v="Cineplex Odeon Windermere Cinemas and VIP"/><tag k="amenity" v="cinema"/><tag k="operator" v="Cineplex"/><tag k="addr:housenumber" v="6151"/><tag k="addr:street" v="Currents Drive NW"/><tag k="addr:postal_code" v="T6W 0L9"/><tag k="addr:city" v="Edmonton"/><tag k="phone" v="780-822-4250"/><tag k="website" v="http://www.cineplex.com/Theatre/cineplex-odeon-windermere-cinemas-and-vip"/></node><node lat="53.52358" lon="-113.615713"  id="-133"  changeset="false" ><tag k="name" v="Scotiabank Theatre Edmonton"/><tag k="amenity" v="cinema"/><tag k="operator" v="Cineplex"/><tag k="addr:housenumber" v="3030"/><tag k="addr:street" v="8882-170 Street"/><tag k="addr:postal_code" v="T5T 4M2"/><tag k="addr:city" v="Edmonton"/><tag k="phone" v="780-444-2400"/><tag k="website" v="http://www.cineplex.com/Theatre/scotiabank-theatre-edmonton"/></node><node lat="52.211433" lon="-113.818381"  id="-134"  changeset="false" ><tag k="name" v="Galaxy Cinemas Red Deer"/><tag k="amenity" v="cinema"/><tag k="operator" v="Cineplex"/><tag k="addr:housenumber" v="357-37400"/><tag k="addr:street" v="Highway 2, Red Deer County, Red Deer County"/><tag k="addr:postal_code" v="T4E 1B9"/><tag k="addr:city" v="Red Deer"/><tag k="phone" v="403-348-2357"/><tag k="website" v="http://www.cineplex.com/Theatre/galaxy-cinemas-red-deer"/></node><node lat="51.205163" lon="-113.988476"  id="-135"  changeset="false" ><tag k="name" v="SilverCity CrossIron Mills and XSCAPE Entertainment Centre"/><tag k="amenity" v="cinema"/><tag k="operator" v="Cineplex"/><tag k="addr:housenumber" v="261055"/><tag k="addr:street" v="CrossIron Boulevard"/><tag k="addr:postal_code" v="T4A 0G3"/><tag k="addr:city" v="Rocky View"/><tag k="phone" v="403-274-3261"/><tag k="website" v="http://www.cineplex.com/Theatre/silvercity-crossiron-mills-and-xscape-entertainment-centre"/></node><node lat="51.074385" lon="-113.98893"  id="-136"  changeset="false" ><tag k="name" v="Cineplex Odeon Sunridge Spectrum Cinemas"/><tag k="amenity" v="cinema"/><tag k="operator" v="Cineplex"/><tag k="addr:housenumber" v="400"/><tag k="addr:street" v="2555-32nd Street NE"/><tag k="addr:postal_code" v="T1Y 7J6"/><tag k="addr:city" v="Calgary"/><tag k="phone" v="403-717-1200"/><tag k="website" v="http://www.cineplex.com/Theatre/cineplex-odeon-sunridge-spectrum-cinemas"/></node><node lat="51.051363" lon="-114.069618"  id="-137"  changeset="false" ><tag k="name" v="Cineplex Odeon Eau Claire Market Cinemas "/><tag k="amenity" v="cinema"/><tag k="operator" v="Cineplex"/><tag k="addr:housenumber" v="200"/><tag k="addr:street" v="Barclay Parade SW"/><tag k="addr:postal_code" v="T2P 4R5"/><tag k="addr:city" v="Calgary"/><tag k="website" v="http://www.cineplex.com/Theatre/cineplex-odeon-eau-claire-market-cinemas"/></node><node lat="50.996067" lon="-114.073148"  id="-138"  changeset="false" ><tag k="name" v="Scotiabank Theatre Chinook"/><tag k="amenity" v="cinema"/><tag k="operator" v="Cineplex"/><tag k="addr:housenumber" v="6455"/><tag k="addr:street" v="Macleod Trail SW"/><tag k="addr:postal_code" v="T2H 0K4"/><tag k="addr:city" v="Calgary"/><tag k="phone" v="403-212-8994"/><tag k="website" v="http://www.cineplex.com/Theatre/scotiabank-theatre-chinook"/></node><node lat="51.016248" lon="-114.169586"  id="-139"  changeset="false" ><tag k="name" v="Cineplex Odeon Westhills Cinemas "/><tag k="amenity" v="cinema"/><tag k="operator" v="Cineplex"/><tag k="addr:housenumber" v="165"/><tag k="addr:street" v="Stewart Green SW"/><tag k="addr:postal_code" v="T3H 3C8"/><tag k="addr:city" v="Calgary"/><tag k="phone" v="403-246-5291"/><tag k="website" v="http://www.cineplex.com/Theatre/cineplex-odeon-westhills-cinemas"/></node><node lat="51.127189" lon="-114.201192"  id="-140"  changeset="false" ><tag k="name" v="Cineplex Odeon Crowfoot Crossing Cinemas"/><tag k="amenity" v="cinema"/><tag k="operator" v="Cineplex"/><tag k="addr:housenumber" v="91"/><tag k="addr:street" v="Crowfoot Terrace NW"/><tag k="addr:postal_code" v="T3G 2L5"/><tag k="addr:city" v="Calgary"/><tag k="phone" v="403-547-3316"/><tag k="website" v="http://www.cineplex.com/Theatre/cineplex-odeon-crowfoot-crossing-cinemas"/></node><node lat="55.173087" lon="-118.823451"  id="-141"  changeset="false" ><tag k="name" v="Cineplex Odeon Grande Prairie Cinemas"/><tag k="amenity" v="cinema"/><tag k="operator" v="Cineplex"/><tag k="addr:housenumber" v="10330"/><tag k="addr:street" v="109th Street"/><tag k="addr:postal_code" v="T8V 7X3"/><tag k="addr:city" v="Grande Prairie"/><tag k="phone" v="780-513-5534"/><tag k="website" v="http://www.cineplex.com/Theatre/cineplex-odeon-grande-prairie-cinemas"/></node><node lat="50.257029" lon="-119.263866"  id="-142"  changeset="false" ><tag k="name" v="Galaxy Cinemas Vernon"/><tag k="amenity" v="cinema"/><tag k="operator" v="Cineplex"/><tag k="addr:housenumber" v="275-2306"/><tag k="addr:street" v="Highway 6"/><tag k="addr:postal_code" v="V1T 7E3"/><tag k="addr:city" v="Vernon"/><tag k="phone" v="250-542-1107"/><tag k="website" v="http://www.cineplex.com/Theatre/galaxy-cinemas-vernon"/></node><node lat="49.88046" lon="-119.443384"  id="-143"  changeset="false" ><tag k="name" v="Cineplex Cinemas Orchard Plaza"/><tag k="amenity" v="cinema"/><tag k="operator" v="Cineplex"/><tag k="addr:housenumber" v="160-1876"/><tag k="addr:street" v="Cooper Road"/><tag k="addr:postal_code" v="V1Y 9N6"/><tag k="addr:city" v="Kelowna"/><tag k="phone" v="250-860-1611"/><tag k="website" v="http://www.cineplex.com/Theatre/cineplex-cinemas-orchard-plaza"/></node><node lat="50.653271" lon="-120.37182"  id="-144"  changeset="false" ><tag k="name" v="Cineplex Odeon Aberdeen Mall Cinemas"/><tag k="amenity" v="cinema"/><tag k="operator" v="Cineplex"/><tag k="addr:housenumber" v="700-1320"/><tag k="addr:street" v="West Trans Canada Highway"/><tag k="addr:postal_code" v="V1S 1J2"/><tag k="addr:city" v="Kamloops"/><tag k="phone" v="250-377-8401"/><tag k="website" v="http://www.cineplex.com/Theatre/cineplex-odeon-aberdeen-mall-cinemas"/></node><node lat="53.909948" lon="-122.758201"  id="-145"  changeset="false" ><tag k="name" v="Famous Players 6 Cinemas "/><tag k="amenity" v="cinema"/><tag k="operator" v="Cineplex"/><tag k="addr:housenumber" v="172-1600"/><tag k="addr:street" v="15th Avenue"/><tag k="addr:postal_code" v="V2L 3X3"/><tag k="addr:city" v="Prince George"/><tag k="phone" v="250-612-3993"/><tag k="website" v="http://www.cineplex.com/Theatre/famous-players-6-cinemas"/></node><node lat="49.154822" lon="-121.977897"  id="-146"  changeset="false" ><tag k="name" v="Galaxy Cinemas Chilliwack"/><tag k="amenity" v="cinema"/><tag k="operator" v="Cineplex"/><tag k="addr:housenumber" v="8249"/><tag k="addr:street" v="Eagle Landing Parkway"/><tag k="addr:postal_code" v="V2P 7K6"/><tag k="addr:city" v="Chilliwack"/><tag k="phone" v="604-793-0516"/><tag k="website" v="http://www.cineplex.com/Theatre/galaxy-cinemas-chilliwack"/></node><node lat="49.130636" lon="-122.323194"  id="-147"  changeset="false" ><tag k="name" v="SilverCity Mission Cinemas "/><tag k="amenity" v="cinema"/><tag k="operator" v="Cineplex"/><tag k="addr:housenumber" v="32555"/><tag k="addr:street" v="London Avenue"/><tag k="addr:postal_code" v="V2V 6M7"/><tag k="addr:city" v="Mission"/><tag k="website" v="http://www.cineplex.com/Theatre/silvercity-mission-cinemas"/></node><node lat="49.058985" lon="-122.381462"  id="-148"  changeset="false" ><tag k="name" v="Cineplex Cinemas Abbotsford and VIP"/><tag k="amenity" v="cinema"/><tag k="operator" v="Cineplex"/><tag k="addr:housenumber" v="3122"/><tag k="addr:street" v="Mt. Lehman Rd."/><tag k="addr:postal_code" v="V4X 2K9"/><tag k="addr:unit" v="J200"/><tag k="addr:city" v="Abbotsford"/><tag k="phone" v="604-504-9701"/><tag k="website" v="http://www.cineplex.com/Theatre/cineplex-cinemas-abbotsford-and-vip"/></node><node lat="49.223819" lon="-122.671298"  id="-149"  changeset="false" ><tag k="name" v="Cineplex Odeon Meadowtown Cinemas"/><tag k="amenity" v="cinema"/><tag k="operator" v="Cineplex"/><tag k="addr:housenumber" v="410"/><tag k="addr:street" v="19800 Lougheed Highway"/><tag k="addr:postal_code" v="V3Y 2W1"/><tag k="addr:city" v="Pitt Meadows"/><tag k="phone" v="604-460-6455"/><tag k="website" v="http://www.cineplex.com/Theatre/cineplex-odeon-meadowtown-cinemas"/></node><node lat="49.16908" lon="-122.665639"  id="-150"  changeset="false" ><tag k="name" v="Cineplex Cinemas Langley"/><tag k="amenity" v="cinema"/><tag k="operator" v="Cineplex"/><tag k="addr:housenumber" v="20090"/><tag k="addr:street" v="91A Avenue"/><tag k="addr:postal_code" v="V1M 3Y9"/><tag k="addr:city" v="Langley"/><tag k="phone" v="604-513-8747"/><tag k="website" v="http://www.cineplex.com/Theatre/cineplex-cinemas-langley"/></node><node lat="49.235224" lon="-122.852635"  id="-151"  changeset="false" ><tag k="name" v="Cineplex Cinemas Coquitlam and VIP"/><tag k="amenity" v="cinema"/><tag k="operator" v="Cineplex"/><tag k="addr:postal_code" v="V3K 4X9"/><tag k="addr:city" v="Coquitlam"/><tag k="website" v="http://www.cineplex.com/Theatre/cineplex-cinemas-coquitlam-and-vip"/></node><node lat="49.134161" lon="-122.885909"  id="-152"  changeset="false" ><tag k="name" v="Cineplex Cinemas Strawberry Hill"/><tag k="amenity" v="cinema"/><tag k="operator" v="Cineplex"/><tag k="addr:housenumber" v="12161-72nd"/><tag k="addr:street" v="Avenue"/><tag k="addr:postal_code" v="V3W 2M1"/><tag k="addr:city" v="Surrey"/><tag k="phone" v="604-501-9400"/><tag k="website" v="http://www.cineplex.com/Theatre/cineplex-cinemas-strawberry-hill"/></node><node lat="49.228325" lon="-122.999439"  id="-153"  changeset="false" ><tag k="name" v="SilverCity Metropolis Cinemas "/><tag k="amenity" v="cinema"/><tag k="operator" v="Cineplex"/><tag k="addr:housenumber" v="4700"/><tag k="addr:street" v="Kingsway"/><tag k="addr:postal_code" v="V5H 4M1"/><tag k="addr:city" v="Burnaby"/><tag k="phone" v="604-435-7474"/><tag k="website" v="http://www.cineplex.com/Theatre/silvercity-metropolis-cinemas"/></node><node lat="49.30878" lon="-123.040668"  id="-154"  changeset="false" ><tag k="name" v="Cineplex Odeon Park  Tilford Cinemas "/><tag k="amenity" v="cinema"/><tag k="operator" v="Cineplex"/><tag k="addr:housenumber" v="200-333"/><tag k="addr:street" v="Brooksbank Avenue"/><tag k="addr:postal_code" v="V7J 3S8"/><tag k="addr:city" v="N. Vancouver"/><tag k="phone" v="604-985-3911"/><tag k="website" v="http://www.cineplex.com/Theatre/cineplex-odeon-park-tilford-cinemas"/></node><node lat="49.312366" lon="-123.083349"  id="-155"  changeset="false" ><tag k="name" v="Cineplex Cinemas Esplanade"/><tag k="amenity" v="cinema"/><tag k="operator" v="Cineplex"/><tag k="addr:postal_code" v="V7M 1A4"/><tag k="addr:city" v="N. Vancouver"/><tag k="website" v="http://www.cineplex.com/Theatre/cineplex-cinemas-esplanade"/></node><node lat="49.281069" lon="-123.107409"  id="-156"  changeset="false" ><tag k="name" v="Cineplex Odeon International Village Cinemas"/><tag k="amenity" v="cinema"/><tag k="operator" v="Cineplex"/><tag k="addr:housenumber" v="88"/><tag k="addr:street" v="West Pender, 3rd Floor"/><tag k="addr:postal_code" v="V6B 6N9"/><tag k="addr:city" v="Vancouver"/><tag k="phone" v="604-806-0799"/><tag k="website" v="http://www.cineplex.com/Theatre/cineplex-odeon-international-village-cinemas"/></node><node lat="49.134057" lon="-123.066132"  id="-157"  changeset="false" ><tag k="name" v="SilverCity Riverport Cinemas "/><tag k="amenity" v="cinema"/><tag k="operator" v="Cineplex"/><tag k="addr:housenumber" v="14211"/><tag k="addr:street" v="Entertainment Way"/><tag k="addr:postal_code" v="V6W 1K4"/><tag k="addr:city" v="Richmond"/><tag k="phone" v="604-277-5993"/><tag k="website" v="http://www.cineplex.com/Theatre/silvercity-riverport-cinemas"/></node><node lat="49.254442" lon="-123.11481"  id="-158"  changeset="false" ><tag k="name" v="The Park Theatre"/><tag k="amenity" v="cinema"/><tag k="operator" v="Cineplex"/><tag k="addr:housenumber" v="3440"/><tag k="addr:street" v="Cambie St."/><tag k="addr:postal_code" v="V5Z 2W8"/><tag k="addr:city" v="Vancouver"/><tag k="phone" v="604-709-3456"/><tag k="website" v="http://www.cineplex.com/Theatre/the-park-theatre"/></node><node lat="49.282176" lon="-123.124341"  id="-159"  changeset="false" ><tag k="name" v="Scotiabank Theatre Vancouver"/><tag k="amenity" v="cinema"/><tag k="operator" v="Cineplex"/><tag k="addr:housenumber" v="900"/><tag k="addr:street" v="Burrard Street"/><tag k="addr:postal_code" v="V6Z 3G5"/><tag k="addr:city" v="Vancouver"/><tag k="phone" v="604-630-1407"/><tag k="website" v="http://www.cineplex.com/Theatre/scotiabank-theatre-vancouver"/></node><node lat="49.21006" lon="-123.115693"  id="-160"  changeset="false" ><tag k="name" v="Cineplex Cinemas Marine Gateway and VIP"/><tag k="amenity" v="cinema"/><tag k="operator" v="Cineplex"/><tag k="addr:housenumber" v="452"/><tag k="addr:street" v="South West Marine Drive"/><tag k="addr:postal_code" v="V5X 0C3"/><tag k="addr:city" v="Vancouver"/><tag k="phone" v="604-630-0414"/><tag k="website" v="http://www.cineplex.com/Theatre/cineplex-cinemas-marine-gateway-and-vip"/></node><node lat="49.266742" lon="-123.145481"  id="-161"  changeset="false" ><tag k="name" v="Fifth Avenue Cinemas (age restricted 19+)"/><tag k="amenity" v="cinema"/><tag k="operator" v="Cineplex"/><tag k="addr:housenumber" v="2110"/><tag k="addr:street" v="Burrard Street"/><tag k="addr:postal_code" v="V6J 3H6"/><tag k="addr:city" v="Vancouver"/><tag k="phone" v="604-734-7469"/><tag k="website" v="http://www.cineplex.com/Theatre/fifth-avenue-cinemas-age-restricted-19"/></node><node lat="48.426186" lon="-123.362758"  id="-162"  changeset="false" ><tag k="name" v="Cineplex Odeon Victoria Cinemas "/><tag k="amenity" v="cinema"/><tag k="operator" v="Cineplex"/><tag k="addr:housenumber" v="780"/><tag k="addr:street" v="Yates Street"/><tag k="addr:postal_code" v="V8W 1L4"/><tag k="addr:city" v="Victoria"/><tag k="phone" v="250-383-0513"/><tag k="website" v="http://www.cineplex.com/Theatre/cineplex-odeon-victoria-cinemas"/></node><node lat="48.45271" lon="-123.395009"  id="-163"  changeset="false" ><tag k="name" v="SilverCity Victoria Cinemas "/><tag k="amenity" v="cinema"/><tag k="operator" v="Cineplex"/><tag k="addr:housenumber" v="3130"/><tag k="addr:street" v="Tillicum Road"/><tag k="addr:postal_code" v="V9A 6T2"/><tag k="addr:city" v="Victoria"/><tag k="phone" v="250-381-9300"/><tag k="website" v="http://www.cineplex.com/Theatre/silvercity-victoria-cinemas"/></node><node lat="48.440698" lon="-123.508397"  id="-164"  changeset="false" ><tag k="name" v="Cineplex Odeon Westshore Cinemas"/><tag k="amenity" v="cinema"/><tag k="operator" v="Cineplex"/><tag k="addr:housenumber" v="900"/><tag k="addr:street" v="2945 Jacklin Rd"/><tag k="addr:postal_code" v="V9B 5E3"/><tag k="addr:city" v="Langford"/><tag k="phone" v="250-474-1007"/><tag k="website" v="http://www.cineplex.com/Theatre/cineplex-odeon-westshore-cinemas"/></node><node lat="49.217948" lon="-124.029518"  id="-165"  changeset="false" ><tag k="name" v="Galaxy Cinemas Nanaimo"/><tag k="amenity" v="cinema"/><tag k="operator" v="Cineplex"/><tag k="addr:housenumber" v="213-4750"/><tag k="addr:street" v="Rutherford Road"/><tag k="addr:postal_code" v="V9T 4K6"/><tag k="addr:city" v="Nanaimo"/><tag k="phone" v="250-729-8000"/><tag k="website" v="http://www.cineplex.com/Theatre/galaxy-cinemas-nanaimo"/></node><node lat="54.312475" lon="-130.326846"  id="-166"  changeset="false" ><tag k="name" v="Famous Players Prince Rupert Cinemas "/><tag k="amenity" v="cinema"/><tag k="operator" v="Cineplex"/><tag k="addr:housenumber" v="525"/><tag k="addr:street" v="West 2nd Avenue"/><tag k="addr:postal_code" v="V8J 1G9"/><tag k="addr:city" v="Prince Rupert"/><tag k="phone" v="250-622-2582"/><tag k="website" v="http://www.cineplex.com/Theatre/famous-players-prince-rupert-cinemas"/></node></osm>